"40":"2 40129  49.7897 306.7863 1604874 147.5639 223.4168  1.85520388 64769","41":"2 40129  49.7897 306.7863 1604874 147.5639 223.4168  1.85520388 64792","42":"2 41859  55.0349 124.5238 0004422 289.1708  70.8401  1.70474871 44981"