GSAT0202 (PRN E14)      
1 40129U 14050B   24053.46274267 -.00000058  00000+0  00000+0 0  9990
2 40129  49.7897 306.7863 1604874 147.5639 223.4168  1.85520388 64792
GSAT0207 (PRN E07)      
1 41859U 16069A   24053.47924556 -.00000014  00000+0  00000+0 0  9999
2 41859  55.0349 124.5238 0004422 289.1708  70.8401  1.70474871 44981
